{
  "house": [{
    "id": 1,
    "name": "Jo",
    "ownerName": "Scallan",
    "areaCode": "13668-018",
    "rent": "1",
    "address": "532"
  }, {
    "id": 2,
    "name": "Feodor",
    "ownerName": "Edens",
    "areaCode": "42549-570",
    "rent": "0983",
    "address": "9"
  }, {
    "id": 3,
    "name": "Olin",
    "ownerName": "Hickisson",
    "areaCode": "62868-221",
    "rent": "692",
    "address": "4"
  }, {
    "id": 4,
    "name": "Ainslie",
    "ownerName": "Ivanenkov",
    "areaCode": "43734-001",
    "rent": "8790",
    "address": "5"
  }, {
    "id": 5,
    "name": "Lillian",
    "ownerName": "Thoumas",
    "areaCode": "36987-3243",
    "rent": "90816",
    "address": "9097"
  }, {
    "id": 6,
    "name": "Lonee",
    "ownerName": "Smaridge",
    "areaCode": "41250-980",
    "rent": "0",
    "address": "43"
  }, {
    "id": 7,
    "name": "Anni",
    "ownerName": "Itscovitz",
    "areaCode": "68788-9893",
    "rent": "5",
    "address": "3"
  }, {
    "id": 8,
    "name": "Lorain",
    "ownerName": "Willoughley",
    "areaCode": "76237-297",
    "rent": "4180",
    "address": "864"
  }, {
    "id": 9,
    "name": "Sigvard",
    "ownerName": "Still",
    "areaCode": "49884-213",
    "rent": "49",
    "address": "2235"
  }, {
    "id": 10,
    "name": "Leigha",
    "ownerName": "Copestick",
    "areaCode": "0378-0183",
    "rent": "1788",
    "address": "120"
  }, {
    "id": 11,
    "name": "Husain",
    "ownerName": "Haddow",
    "areaCode": "54458-933",
    "rent": "29",
    "address": "83077"
  }, {
    "id": 12,
    "name": "Serene",
    "ownerName": "Ching",
    "areaCode": "0378-7732",
    "rent": "39",
    "address": "35"
  }, {
    "id": 13,
    "name": "Siward",
    "ownerName": "Hebard",
    "areaCode": "0268-6108",
    "rent": "734",
    "address": "13"
  }, {
    "id": 14,
    "name": "Lyssa",
    "ownerName": "Lear",
    "areaCode": "17478-250",
    "rent": "080",
    "address": "0"
  }, {
    "id": 15,
    "name": "Jodee",
    "ownerName": "Dresche",
    "areaCode": "55154-3276",
    "rent": "34",
    "address": "3238"
  }, {
    "id": 16,
    "name": "Aeriel",
    "ownerName": "Repper",
    "areaCode": "13734-110",
    "rent": "181",
    "address": "02"
  }, {
    "id": 17,
    "name": "Winfred",
    "ownerName": "Silmon",
    "areaCode": "35356-759",
    "rent": "137",
    "address": "3720"
  }, {
    "id": 18,
    "name": "Norman",
    "ownerName": "Griffiths",
    "areaCode": "68788-9756",
    "rent": "4",
    "address": "61"
  }, {
    "id": 19,
    "name": "Darrelle",
    "ownerName": "Rapps",
    "areaCode": "63354-300",
    "rent": "2",
    "address": "832"
  }, {
    "id": 20,
    "name": "Hermann",
    "ownerName": "Moxsom",
    "areaCode": "66336-945",
    "rent": "78",
    "address": "33"
  }, {
    "id": 21,
    "name": "Gradeigh",
    "ownerName": "Killingbeck",
    "areaCode": "58160-842",
    "rent": "728",
    "address": "777"
  }, {
    "id": 22,
    "name": "Heath",
    "ownerName": "Stealey",
    "areaCode": "63739-514",
    "rent": "93",
    "address": "34"
  }, {
    "id": 23,
    "name": "Barthel",
    "ownerName": "Caldecot",
    "areaCode": "58962-003",
    "rent": "1",
    "address": "8271"
  }, {
    "id": 24,
    "name": "Lusa",
    "ownerName": "Dagwell",
    "areaCode": "36800-567",
    "rent": "7352",
    "address": "4"
  }, {
    "id": 25,
    "name": "Klemens",
    "ownerName": "Brommage",
    "areaCode": "0904-7914",
    "rent": "3",
    "address": "56"
  }, {
    "id": 26,
    "name": "Hillary",
    "ownerName": "Marzelle",
    "areaCode": "55154-2873",
    "rent": "5824",
    "address": "6"
  }, {
    "id": 27,
    "name": "Sharla",
    "ownerName": "Cleobury",
    "areaCode": "0268-0278",
    "rent": "2",
    "address": "47"
  }, {
    "id": 28,
    "name": "Hussein",
    "ownerName": "Lazare",
    "areaCode": "11344-118",
    "rent": "77",
    "address": "8"
  }, {
    "id": 29,
    "name": "Zorine",
    "ownerName": "Gillson",
    "areaCode": "37205-627",
    "rent": "07",
    "address": "88"
  }, {
    "id": 30,
    "name": "Waly",
    "ownerName": "Petren",
    "areaCode": "0363-0609",
    "rent": "6220",
    "address": "137"
  }, {
    "id": 31,
    "name": "Leigha",
    "ownerName": "Ebbers",
    "areaCode": "65044-1238",
    "rent": "8",
    "address": "119"
  }, {
    "id": 32,
    "name": "Terry",
    "ownerName": "Orleton",
    "areaCode": "54575-955",
    "rent": "634",
    "address": "74"
  }, {
    "id": 33,
    "name": "Beverie",
    "ownerName": "Hurleston",
    "areaCode": "63629-4995",
    "rent": "4261",
    "address": "152"
  }, {
    "id": 34,
    "name": "Reed",
    "ownerName": "Sumsion",
    "areaCode": "16729-146",
    "rent": "6707",
    "address": "70269"
  }, {
    "id": 35,
    "name": "Pepillo",
    "ownerName": "Portail",
    "areaCode": "54868-5103",
    "rent": "1301",
    "address": "751"
  }, {
    "id": 36,
    "name": "Missie",
    "ownerName": "Pratt",
    "areaCode": "0054-8722",
    "rent": "880",
    "address": "94"
  }, {
    "id": 37,
    "name": "Ruth",
    "ownerName": "McGloughlin",
    "areaCode": "59886-316",
    "rent": "8",
    "address": "07"
  }, {
    "id": 38,
    "name": "Sergent",
    "ownerName": "Langdon",
    "areaCode": "58231-001",
    "rent": "45812",
    "address": "2"
  }, {
    "id": 39,
    "name": "Fayth",
    "ownerName": "Ruske",
    "areaCode": "59970-043",
    "rent": "46",
    "address": "98264"
  }, {
    "id": 40,
    "name": "Foster",
    "ownerName": "Isgar",
    "areaCode": "52125-530",
    "rent": "0",
    "address": "63"
  }, {
    "id": 41,
    "name": "Mathe",
    "ownerName": "Heeps",
    "areaCode": "21695-162",
    "rent": "3",
    "address": "0877"
  }, {
    "id": 42,
    "name": "Idalina",
    "ownerName": "Scallon",
    "areaCode": "53329-040",
    "rent": "2",
    "address": "854"
  }, {
    "id": 43,
    "name": "Melonie",
    "ownerName": "Pherps",
    "areaCode": "54868-3287",
    "rent": "080",
    "address": "132"
  }, {
    "id": 44,
    "name": "Felicle",
    "ownerName": "Matchett",
    "areaCode": "0179-0126",
    "rent": "321",
    "address": "7885"
  }, {
    "id": 45,
    "name": "Farley",
    "ownerName": "Moyle",
    "areaCode": "43526-114",
    "rent": "8",
    "address": "11048"
  }, {
    "id": 46,
    "name": "Dorie",
    "ownerName": "Loughman",
    "areaCode": "49035-707",
    "rent": "1760",
    "address": "86063"
  }, {
    "id": 47,
    "name": "Munroe",
    "ownerName": "Starte",
    "areaCode": "52125-467",
    "rent": "63096",
    "address": "1231"
  }, {
    "id": 48,
    "name": "Diena",
    "ownerName": "Tregear",
    "areaCode": "0378-7105",
    "rent": "974",
    "address": "91"
  }, {
    "id": 49,
    "name": "Eveleen",
    "ownerName": "Abry",
    "areaCode": "63174-172",
    "rent": "1840",
    "address": "94665"
  }, {
    "id": 50,
    "name": "Fan",
    "ownerName": "Gee",
    "areaCode": "44087-0022",
    "rent": "933",
    "address": "47"
  }, {
    "id": 51,
    "name": "Darrelle",
    "ownerName": "Vasler",
    "areaCode": "53807-151",
    "rent": "904",
    "address": "660"
  }, {
    "id": 52,
    "name": "Di",
    "ownerName": "Poate",
    "areaCode": "43479-108",
    "rent": "06852",
    "address": "95459"
  }, {
    "id": 53,
    "name": "Margaux",
    "ownerName": "Barnet",
    "areaCode": "58668-4001",
    "rent": "7",
    "address": "511"
  }, {
    "id": 54,
    "name": "Leroi",
    "ownerName": "Yggo",
    "areaCode": "52125-478",
    "rent": "8",
    "address": "3"
  }, {
    "id": 55,
    "name": "Alejoa",
    "ownerName": "Vango",
    "areaCode": "63629-4245",
    "rent": "0132",
    "address": "43"
  }, {
    "id": 56,
    "name": "Isac",
    "ownerName": "Cristou",
    "areaCode": "55910-530",
    "rent": "8",
    "address": "4"
  }, {
    "id": 57,
    "name": "Jewelle",
    "ownerName": "Beasant",
    "areaCode": "15127-874",
    "rent": "4",
    "address": "75"
  }, {
    "id": 58,
    "name": "Johan",
    "ownerName": "Bowers",
    "areaCode": "36987-2521",
    "rent": "6019",
    "address": "0252"
  }, {
    "id": 59,
    "name": "Trstram",
    "ownerName": "Croome",
    "areaCode": "23635-581",
    "rent": "93528",
    "address": "3405"
  }, {
    "id": 60,
    "name": "Angelico",
    "ownerName": "Mathie",
    "areaCode": "64616-050",
    "rent": "0",
    "address": "57350"
  }, {
    "id": 61,
    "name": "Martino",
    "ownerName": "Gaffon",
    "areaCode": "68025-073",
    "rent": "96177",
    "address": "0"
  }, {
    "id": 62,
    "name": "Ferguson",
    "ownerName": "Gale",
    "areaCode": "0024-5862",
    "rent": "97",
    "address": "20301"
  }, {
    "id": 63,
    "name": "Joseph",
    "ownerName": "Mousby",
    "areaCode": "52125-607",
    "rent": "14876",
    "address": "266"
  }, {
    "id": 64,
    "name": "Rollins",
    "ownerName": "Huffer",
    "areaCode": "0268-1457",
    "rent": "6",
    "address": "02425"
  }, {
    "id": 65,
    "name": "Brittne",
    "ownerName": "Berkely",
    "areaCode": "76485-1046",
    "rent": "8407",
    "address": "69"
  }, {
    "id": 66,
    "name": "Drusy",
    "ownerName": "Berardt",
    "areaCode": "59779-970",
    "rent": "508",
    "address": "840"
  }, {
    "id": 67,
    "name": "Sadie",
    "ownerName": "Auten",
    "areaCode": "64679-929",
    "rent": "450",
    "address": "6"
  }, {
    "id": 68,
    "name": "Serene",
    "ownerName": "Yanshinov",
    "areaCode": "0363-0281",
    "rent": "928",
    "address": "656"
  }, {
    "id": 69,
    "name": "Elena",
    "ownerName": "Foskew",
    "areaCode": "66336-774",
    "rent": "7162",
    "address": "490"
  }, {
    "id": 70,
    "name": "Warden",
    "ownerName": "Scambler",
    "areaCode": "35000-878",
    "rent": "0",
    "address": "13"
  }, {
    "id": 71,
    "name": "Gilly",
    "ownerName": "Salle",
    "areaCode": "37808-072",
    "rent": "43087",
    "address": "0580"
  }, {
    "id": 72,
    "name": "Batsheva",
    "ownerName": "Felkin",
    "areaCode": "67544-886",
    "rent": "27972",
    "address": "7"
  }, {
    "id": 73,
    "name": "Arlana",
    "ownerName": "Ledwitch",
    "areaCode": "0409-9302",
    "rent": "00",
    "address": "73"
  }, {
    "id": 74,
    "name": "Helaine",
    "ownerName": "Pleavin",
    "areaCode": "68387-690",
    "rent": "04360",
    "address": "36034"
  }, {
    "id": 75,
    "name": "Devan",
    "ownerName": "Pearcy",
    "areaCode": "67457-495",
    "rent": "26343",
    "address": "3"
  }, {
    "id": 76,
    "name": "Elbertine",
    "ownerName": "McMyler",
    "areaCode": "0904-5047",
    "rent": "06",
    "address": "9"
  }, {
    "id": 77,
    "name": "Mollie",
    "ownerName": "Sowrey",
    "areaCode": "0126-0088",
    "rent": "06",
    "address": "4"
  }, {
    "id": 78,
    "name": "Cheston",
    "ownerName": "Willcot",
    "areaCode": "75981-063",
    "rent": "774",
    "address": "564"
  }, {
    "id": 79,
    "name": "Merl",
    "ownerName": "Parradye",
    "areaCode": "64616-102",
    "rent": "6",
    "address": "30"
  }, {
    "id": 80,
    "name": "Oates",
    "ownerName": "Spurdens",
    "areaCode": "36987-1251",
    "rent": "9",
    "address": "371"
  }, {
    "id": 81,
    "name": "Moira",
    "ownerName": "Braemer",
    "areaCode": "52261-0207",
    "rent": "43165",
    "address": "7062"
  }, {
    "id": 82,
    "name": "Cedric",
    "ownerName": "Tunnow",
    "areaCode": "0093-7599",
    "rent": "9482",
    "address": "87118"
  }, {
    "id": 83,
    "name": "Jacquenetta",
    "ownerName": "Kynastone",
    "areaCode": "52763-504",
    "rent": "2",
    "address": "87"
  }, {
    "id": 84,
    "name": "Carmine",
    "ownerName": "Awton",
    "areaCode": "24236-200",
    "rent": "9060",
    "address": "69789"
  }, {
    "id": 85,
    "name": "Moreen",
    "ownerName": "Arnaudot",
    "areaCode": "65923-513",
    "rent": "0",
    "address": "68803"
  }, {
    "id": 86,
    "name": "Reinald",
    "ownerName": "Pesic",
    "areaCode": "0378-5100",
    "rent": "87",
    "address": "6568"
  }, {
    "id": 87,
    "name": "Killian",
    "ownerName": "Spaldin",
    "areaCode": "57520-0667",
    "rent": "3",
    "address": "7694"
  }, {
    "id": 88,
    "name": "Antonetta",
    "ownerName": "Llywarch",
    "areaCode": "43269-849",
    "rent": "255",
    "address": "88368"
  }, {
    "id": 89,
    "name": "Lexy",
    "ownerName": "Kelloch",
    "areaCode": "68788-9927",
    "rent": "77",
    "address": "3747"
  }, {
    "id": 90,
    "name": "Milty",
    "ownerName": "Gooders",
    "areaCode": "0268-1199",
    "rent": "0321",
    "address": "64392"
  }, {
    "id": 91,
    "name": "Othella",
    "ownerName": "Sappy",
    "areaCode": "37808-428",
    "rent": "6476",
    "address": "767"
  }, {
    "id": 92,
    "name": "Griffin",
    "ownerName": "Carradice",
    "areaCode": "66336-915",
    "rent": "03",
    "address": "48"
  }, {
    "id": 93,
    "name": "Tom",
    "ownerName": "Shellshear",
    "areaCode": "54866-003",
    "rent": "3920",
    "address": "654"
  }, {
    "id": 94,
    "name": "Stavros",
    "ownerName": "Gersam",
    "areaCode": "55289-301",
    "rent": "683",
    "address": "15"
  }, {
    "id": 95,
    "name": "Joletta",
    "ownerName": "O'Hanley",
    "areaCode": "30142-604",
    "rent": "9",
    "address": "7711"
  }, {
    "id": 96,
    "name": "Waneta",
    "ownerName": "Bermingham",
    "areaCode": "68788-9398",
    "rent": "57",
    "address": "1958"
  }, {
    "id": 97,
    "name": "Miguelita",
    "ownerName": "Hinsche",
    "areaCode": "63304-580",
    "rent": "8467",
    "address": "598"
  }, {
    "id": 98,
    "name": "Ketty",
    "ownerName": "Hallaways",
    "areaCode": "40076-949",
    "rent": "9",
    "address": "504"
  }, {
    "id": 99,
    "name": "Thatch",
    "ownerName": "Wagner",
    "areaCode": "45802-222",
    "rent": "18",
    "address": "329"
  }, {
    "id": 100,
    "name": "Price",
    "ownerName": "Giroldi",
    "areaCode": "55154-4875",
    "rent": "4160",
    "address": "3"
  }]
}
